LUR-1                   
1 60506U 24149AQ  26068.79566301  .00009121  00000+0  32985-3 0  9998
2 60506  97.3790 148.4255 0002777 309.1571  50.9421 15.28658648 86785
STARLINK-33889          
1 63829U 25092AB  26068.34189342  .00028067  00000+0  10247-2 0  9990
2 63829  43.0007 174.3274 0000769 289.9216  70.1553 15.27608953 48505
